{"type":"FeatureCollection","name":"jabar_kabkota_placeholder","crs":{"type":"name","properties":{"name":"urn:ogc:def:crs:OGC:1.3:CRS84"}},"features":[{"type":"Feature","properties":{"nama_kabkota":"KABUPATEN BOGOR","provinsi":"JAWA BARAT"},"geometry":{"type":"Polygon","coordinates":[[[106.65,-6.72],[106.91,-6.72],[106.91,-6.46],[106.65,-6.46],[106.65,-6.72]]]}},{"type":"Feature","properties":{"nama_kabkota":"KABUPATEN SUKABUMI","provinsi":"JAWA BARAT"},"geometry":{"type":"Polygon","coordinates":[[[106.79,-7.1499999999999995],[107.05,-7.1499999999999995],[107.05,-6.89],[106.79,-6.89],[106.79,-7.1499999999999995]]]}},{"type":"Feature","properties":{"nama_kabkota":"KABUPATEN CIANJUR","provinsi":"JAWA BARAT"},"geometry":{"type":"Polygon","coordinates":[[[107.01,-6.95],[107.27,-6.95],[107.27,-6.69],[107.01,-6.69],[107.01,-6.95]]]}},{"type":"Feature","properties":{"nama_kabkota":"KABUPATEN BANDUNG","provinsi":"JAWA BARAT"},"geometry":{"type":"Polygon","coordinates":[[[107.49000000000001,-7.18],[107.75,-7.18],[107.75,-6.92],[107.49000000000001,-6.92],[107.49000000000001,-7.18]]]}},{"type":"Feature","properties":{"nama_kabkota":"KABUPATEN GARUT","provinsi":"JAWA BARAT"},"geometry":{"type":"Polygon","coordinates":[[[107.77000000000001,-7.35],[108.03,-7.35],[108.03,-7.09],[107.77000000000001,-7.09],[107.77000000000001,-7.35]]]}},{"type":"Feature","properties":{"nama_kabkota":"KABUPATEN TASIKMALAYA","provinsi":"JAWA BARAT"},"geometry":{"type":"Polygon","coordinates":[[[108.08,-7.4799999999999995],[108.33999999999999,-7.4799999999999995],[108.33999999999999,-7.22],[108.08,-7.22],[108.08,-7.4799999999999995]]]}},{"type":"Feature","properties":{"nama_kabkota":"KABUPATEN CIAMIS","provinsi":"JAWA BARAT"},"geometry":{"type":"Polygon","coordinates":[[[108.22,-7.46],[108.47999999999999,-7.46],[108.47999999999999,-7.2],[108.22,-7.2],[108.22,-7.46]]]}},{"type":"Feature","properties":{"nama_kabkota":"KABUPATEN KUNINGAN","provinsi":"JAWA BARAT"},"geometry":{"type":"Polygon","coordinates":[[[108.35000000000001,-7.11],[108.61,-7.11],[108.61,-6.8500000000000005],[108.35000000000001,-6.8500000000000005],[108.35000000000001,-7.11]]]}},{"type":"Feature","properties":{"nama_kabkota":"KABUPATEN CIREBON","provinsi":"JAWA BARAT"},"geometry":{"type":"Polygon","coordinates":[[[108.35000000000001,-6.92],[108.61,-6.92],[108.61,-6.66],[108.35000000000001,-6.66],[108.35000000000001,-6.92]]]}},{"type":"Feature","properties":{"nama_kabkota":"KABUPATEN MAJALENGKA","provinsi":"JAWA BARAT"},"geometry":{"type":"Polygon","coordinates":[[[108.10000000000001,-6.97],[108.36,-6.97],[108.36,-6.71],[108.10000000000001,-6.71],[108.10000000000001,-6.97]]]}},{"type":"Feature","properties":{"nama_kabkota":"KABUPATEN SUMEDANG","provinsi":"JAWA BARAT"},"geometry":{"type":"Polygon","coordinates":[[[107.94,-6.99],[108.19999999999999,-6.99],[108.19999999999999,-6.73],[107.94,-6.73],[107.94,-6.99]]]}},{"type":"Feature","properties":{"nama_kabkota":"KABUPATEN INDRAMAYU","provinsi":"JAWA BARAT"},"geometry":{"type":"Polygon","coordinates":[[[108.19,-6.47],[108.44999999999999,-6.47],[108.44999999999999,-6.21],[108.19,-6.21],[108.19,-6.47]]]}},{"type":"Feature","properties":{"nama_kabkota":"KABUPATEN SUBANG","provinsi":"JAWA BARAT"},"geometry":{"type":"Polygon","coordinates":[[[107.63000000000001,-6.7],[107.89,-6.7],[107.89,-6.44],[107.63000000000001,-6.44],[107.63000000000001,-6.7]]]}},{"type":"Feature","properties":{"nama_kabkota":"KABUPATEN PURWAKARTA","provinsi":"JAWA BARAT"},"geometry":{"type":"Polygon","coordinates":[[[107.30000000000001,-6.68],[107.56,-6.68],[107.56,-6.42],[107.30000000000001,-6.42],[107.30000000000001,-6.68]]]}},{"type":"Feature","properties":{"nama_kabkota":"KABUPATEN KARAWANG","provinsi":"JAWA BARAT"},"geometry":{"type":"Polygon","coordinates":[[[107.21000000000001,-6.45],[107.47,-6.45],[107.47,-6.19],[107.21000000000001,-6.19],[107.21000000000001,-6.45]]]}},{"type":"Feature","properties":{"nama_kabkota":"KABUPATEN BEKASI","provinsi":"JAWA BARAT"},"geometry":{"type":"Polygon","coordinates":[[[107.0,-6.37],[107.25999999999999,-6.37],[107.25999999999999,-6.11],[107.0,-6.11],[107.0,-6.37]]]}},{"type":"Feature","properties":{"nama_kabkota":"KABUPATEN BANDUNG BARAT","provinsi":"JAWA BARAT"},"geometry":{"type":"Polygon","coordinates":[[[107.36,-6.9799999999999995],[107.61999999999999,-6.9799999999999995],[107.61999999999999,-6.72],[107.36,-6.72],[107.36,-6.9799999999999995]]]}},{"type":"Feature","properties":{"nama_kabkota":"KABUPATEN PANGANDARAN","provinsi":"JAWA BARAT"},"geometry":{"type":"Polygon","coordinates":[[[108.52000000000001,-7.82],[108.78,-7.82],[108.78,-7.5600000000000005],[108.52000000000001,-7.5600000000000005],[108.52000000000001,-7.82]]]}},{"type":"Feature","properties":{"nama_kabkota":"KOTA BOGOR","provinsi":"JAWA BARAT"},"geometry":{"type":"Polygon","coordinates":[[[106.74000000000001,-6.67],[106.88,-6.67],[106.88,-6.529999999999999],[106.74000000000001,-6.529999999999999],[106.74000000000001,-6.67]]]}},{"type":"Feature","properties":{"nama_kabkota":"KOTA SUKABUMI","provinsi":"JAWA BARAT"},"geometry":{"type":"Polygon","coordinates":[[[106.86000000000001,-6.99],[107.0,-6.99],[107.0,-6.85],[106.86000000000001,-6.85],[106.86000000000001,-6.99]]]}},{"type":"Feature","properties":{"nama_kabkota":"KOTA BANDUNG","provinsi":"JAWA BARAT"},"geometry":{"type":"Polygon","coordinates":[[[107.54,-6.98],[107.67999999999999,-6.98],[107.67999999999999,-6.84],[107.54,-6.84],[107.54,-6.98]]]}},{"type":"Feature","properties":{"nama_kabkota":"KOTA CIREBON","provinsi":"JAWA BARAT"},"geometry":{"type":"Polygon","coordinates":[[[108.48,-6.800000000000001],[108.61999999999999,-6.800000000000001],[108.61999999999999,-6.66],[108.48,-6.66],[108.48,-6.800000000000001]]]}},{"type":"Feature","properties":{"nama_kabkota":"KOTA BEKASI","provinsi":"JAWA BARAT"},"geometry":{"type":"Polygon","coordinates":[[[106.92,-6.3100000000000005],[107.05999999999999,-6.3100000000000005],[107.05999999999999,-6.17],[106.92,-6.17],[106.92,-6.3100000000000005]]]}},{"type":"Feature","properties":{"nama_kabkota":"KOTA DEPOK","provinsi":"JAWA BARAT"},"geometry":{"type":"Polygon","coordinates":[[[106.75,-6.470000000000001],[106.88999999999999,-6.470000000000001],[106.88999999999999,-6.33],[106.75,-6.33],[106.75,-6.470000000000001]]]}},{"type":"Feature","properties":{"nama_kabkota":"KOTA CIMAHI","provinsi":"JAWA BARAT"},"geometry":{"type":"Polygon","coordinates":[[[107.47000000000001,-6.94],[107.61,-6.94],[107.61,-6.8],[107.47000000000001,-6.8],[107.47000000000001,-6.94]]]}},{"type":"Feature","properties":{"nama_kabkota":"KOTA TASIKMALAYA","provinsi":"JAWA BARAT"},"geometry":{"type":"Polygon","coordinates":[[[108.15,-7.390000000000001],[108.28999999999999,-7.390000000000001],[108.28999999999999,-7.25],[108.15,-7.25],[108.15,-7.390000000000001]]]}},{"type":"Feature","properties":{"nama_kabkota":"KOTA BANJAR","provinsi":"JAWA BARAT"},"geometry":{"type":"Polygon","coordinates":[[[108.48,-7.430000000000001],[108.61999999999999,-7.430000000000001],[108.61999999999999,-7.29],[108.48,-7.29],[108.48,-7.430000000000001]]]}}]}